EOSSAT-1                
1 55053U 23001AW  26068.73619225  .00007695  00000+0  24844-3 0  9992
2 55053  97.3357 130.2294 0011263 110.3168 249.9285 15.32339828176689
STARLINK-35488          
1 66254U 25245W   26068.87417470  .00022464  00000+0  76839-3 0  9994
2 66254  53.1565 283.1162 0001009  83.7537 276.3579 15.30195842 21286
